ACS3                    
1 59588U 24077B   24285.74136835  .00005890  00000+0  65939-2 0  9998
2 59588  97.4501 326.9841 0049855 181.9455 178.1511 13.70757268 23342
